*******************************************************************************
Ephemeris / WWW_USER Mon Jul 15 19:30:15 2024 Pasadena, USA      / Horizons    
*******************************************************************************
Target body name: Hale-Bopp (C/1995 O1)           {source: JPL#226}
Center body name: Earth (399)                     {source: DE441}
Center-site name: Gemini South Obs., Cerro Pachon
*******************************************************************************
Start time      : A.D. 2018-Dec-11 23:47:00.0000 UT      
Stop  time      : A.D. 2018-Dec-12 09:25:00.0000 UT      
Step-size       : 1 minutes
*******************************************************************************
Target pole/equ : undefined
Target radii    : 30. km                                                       
Center geodetic : 289.2634, -30.2406227, 2.71233  {E-lon(deg),Lat(deg),Alt(km)}
Center cylindric: 289.2634,5517.21435,-3194.81213 {E-lon(deg),Dxy(km),Dz(km)}
Center pole/equ : ITRF93                          {East-longitude positive}
Center radii    : 6378.137, 6378.137, 6356.752 km {Equator_a, b, pole_c}       
Target primary  : Sun
Vis. interferer : MOON (R_eq= 1737.400) km        {source: DE441}
Rel. light bend : Sun                             {source: DE441}
Rel. lght bnd GM: 1.3271E+11 km^3/s^2                                          
Small-body perts: Yes                             {source: SB441-N16}
Atmos refraction: NO (AIRLESS)
RA format       : HMS
Time format     : CAL 
Calendar mode   : Mixed Julian/Gregorian
RTS-only print  : NO       
EOP file        : eop.240715.p241008                                           
EOP coverage    : DATA-BASED 1962-JAN-20 TO 2024-JUL-15. PREDICTS-> 2024-OCT-07
Units conversion: 1 au= 149597870.700 km, c= 299792.458 km/s, 1 day= 86400.0 s 
Table cut-offs 1: Elevation (-90.0deg=NO ),Airmass (>38.000=NO), Daylight (YES)
Table cut-offs 2: Solar elongation (  0.0,180.0=NO ),Local Hour Angle( 0.0=NO )
Table cut-offs 3: RA/DEC angular rate (     0.0=NO )                           
*******************************************************************************
Initial IAU76/J2000 heliocentric ecliptic osculating elements (au, days, deg.):
  EPOCH=  2459837.5 ! 2022-Sep-15.0000000 (TDB)    RMSW= n.a.                  
   EC= .9949810027633206   QR= .890537663547794    TP= 2450537.1349071441      
   OM= 282.7334213961641   W= 130.4146670659176    IN= 89.28759424740302       
  Equivalent ICRF heliocentric cartesian coordinates (au, au/d):
   X= 3.907631452214869E+00  Y=-1.373895334060347E+00  Z=-4.624358508575312E+01
  VX= 3.778244409519935E-04 VY=-5.803173067116371E-04 VZ=-3.255716412104052E-03
Comet physical (GM= km^3/s^2; RAD= km):                                        
   GM= n.a.                RAD= 30.                                            
   M1=  4.8      M2=  n.a.     k1=  4.     k2= n.a.     PHCOF= n.a.            
*******************************************************************************
 Date__(UT)__HR:MN     R.A._________(ICRF)_________DEC
******************************************************
$$SOE
 2018-Dec-12 05:59     22 21 57.336853 -85 13 13.68624
 2018-Dec-12 06:00     22 21 57.348919 -85 13 13.62797
 2018-Dec-12 06:01     22 21 57.360988 -85 13 13.56971
 2018-Dec-12 06:02     22 21 57.373060 -85 13 13.51146
 2018-Dec-12 06:03     22 21 57.385134 -85 13 13.45320
 2018-Dec-12 06:04     22 21 57.397211 -85 13 13.39495
 2018-Dec-12 06:05     22 21 57.409290 -85 13 13.33669
 2018-Dec-12 06:06     22 21 57.421372 -85 13 13.27844
 2018-Dec-12 06:07     22 21 57.433457 -85 13 13.22020
 2018-Dec-12 06:08     22 21 57.445545 -85 13 13.16195
 2018-Dec-12 06:09     22 21 57.457635 -85 13 13.10371
 2018-Dec-12 06:10     22 21 57.469728 -85 13 13.04547
 2018-Dec-12 06:11     22 21 57.481823 -85 13 12.98723
 2018-Dec-12 06:12     22 21 57.493921 -85 13 12.92899
 2018-Dec-12 06:13     22 21 57.506022 -85 13 12.87076
 2018-Dec-12 06:14     22 21 57.518125 -85 13 12.81252
 2018-Dec-12 06:15     22 21 57.530231 -85 13 12.75429
 2018-Dec-12 06:16     22 21 57.542340 -85 13 12.69607
 2018-Dec-12 06:17     22 21 57.554451 -85 13 12.63784
 2018-Dec-12 06:18     22 21 57.566565 -85 13 12.57962
 2018-Dec-12 06:19     22 21 57.578681 -85 13 12.52140
 2018-Dec-12 06:20     22 21 57.590800 -85 13 12.46318
 2018-Dec-12 06:21     22 21 57.602922 -85 13 12.40496
 2018-Dec-12 06:22     22 21 57.615046 -85 13 12.34675
 2018-Dec-12 06:23     22 21 57.627172 -85 13 12.28854
 2018-Dec-12 06:24     22 21 57.639301 -85 13 12.23033
 2018-Dec-12 06:25     22 21 57.651433 -85 13 12.17212
 2018-Dec-12 06:26     22 21 57.663567 -85 13 12.11392
 2018-Dec-12 06:27     22 21 57.675704 -85 13 12.05571
 2018-Dec-12 06:28     22 21 57.687843 -85 13 11.99752
 2018-Dec-12 06:29     22 21 57.699985 -85 13 11.93932
 2018-Dec-12 06:30     22 21 57.712129 -85 13 11.88112
 2018-Dec-12 06:31     22 21 57.724276 -85 13 11.82293
 2018-Dec-12 06:32     22 21 57.736425 -85 13 11.76474
 2018-Dec-12 06:33     22 21 57.748577 -85 13 11.70655
 2018-Dec-12 06:34     22 21 57.760731 -85 13 11.64837
 2018-Dec-12 06:35     22 21 57.772887 -85 13 11.59019
 2018-Dec-12 06:36     22 21 57.785046 -85 13 11.53201
 2018-Dec-12 06:37     22 21 57.797208 -85 13 11.47383
 2018-Dec-12 06:38     22 21 57.809372 -85 13 11.41565
 2018-Dec-12 06:39     22 21 57.821538 -85 13 11.35748
 2018-Dec-12 06:40     22 21 57.833707 -85 13 11.29931
 2018-Dec-12 06:41     22 21 57.845878 -85 13 11.24114
 2018-Dec-12 06:42     22 21 57.858051 -85 13 11.18298
 2018-Dec-12 06:43     22 21 57.870227 -85 13 11.12482
 2018-Dec-12 06:44     22 21 57.882406 -85 13 11.06666
 2018-Dec-12 06:45     22 21 57.894586 -85 13 11.00850
 2018-Dec-12 06:46     22 21 57.906769 -85 13 10.95034
 2018-Dec-12 06:47     22 21 57.918955 -85 13 10.89219
 2018-Dec-12 06:48     22 21 57.931142 -85 13 10.83404
 2018-Dec-12 06:49     22 21 57.943332 -85 13 10.77590
 2018-Dec-12 06:50     22 21 57.955525 -85 13 10.71775
 2018-Dec-12 06:51     22 21 57.967720 -85 13 10.65961
 2018-Dec-12 06:52     22 21 57.979917 -85 13 10.60147
 2018-Dec-12 06:53     22 21 57.992116 -85 13 10.54334
 2018-Dec-12 06:54     22 21 58.004317 -85 13 10.48520
 2018-Dec-12 06:55     22 21 58.016521 -85 13 10.42707
 2018-Dec-12 06:56     22 21 58.028727 -85 13 10.36894
 2018-Dec-12 06:57     22 21 58.040936 -85 13 10.31082
 2018-Dec-12 06:58     22 21 58.053147 -85 13 10.25269
 2018-Dec-12 06:59     22 21 58.065359 -85 13 10.19457
 2018-Dec-12 07:00     22 21 58.077575 -85 13 10.13646
 2018-Dec-12 07:01     22 21 58.089792 -85 13 10.07834
 2018-Dec-12 07:02     22 21 58.102012 -85 13 10.02023
 2018-Dec-12 07:03     22 21 58.114233 -85 13 09.96212
 2018-Dec-12 07:04     22 21 58.126457 -85 13 09.90402
 2018-Dec-12 07:05     22 21 58.138684 -85 13 09.84591
 2018-Dec-12 07:06     22 21 58.150912 -85 13 09.78781
 2018-Dec-12 07:07     22 21 58.163142 -85 13 09.72971
 2018-Dec-12 07:08     22 21 58.175375 -85 13 09.67162
 2018-Dec-12 07:09     22 21 58.187610 -85 13 09.61353
 2018-Dec-12 07:10     22 21 58.199847 -85 13 09.55544
 2018-Dec-12 07:11     22 21 58.212086 -85 13 09.49735
 2018-Dec-12 07:12     22 21 58.224327 -85 13 09.43927
 2018-Dec-12 07:13     22 21 58.236571 -85 13 09.38119
 2018-Dec-12 07:14     22 21 58.248816 -85 13 09.32311
 2018-Dec-12 07:15     22 21 58.261064 -85 13 09.26504
 2018-Dec-12 07:16     22 21 58.273313 -85 13 09.20696
 2018-Dec-12 07:17     22 21 58.285565 -85 13 09.14889
 2018-Dec-12 07:18     22 21 58.297819 -85 13 09.09083
 2018-Dec-12 07:19     22 21 58.310075 -85 13 09.03276
 2018-Dec-12 07:20     22 21 58.322333 -85 13 08.97470
 2018-Dec-12 07:21     22 21 58.334593 -85 13 08.91665
 2018-Dec-12 07:22     22 21 58.346855 -85 13 08.85859
 2018-Dec-12 07:23     22 21 58.359118 -85 13 08.80054
 2018-Dec-12 07:24     22 21 58.371384 -85 13 08.74249
 2018-Dec-12 07:25     22 21 58.383652 -85 13 08.68445
 2018-Dec-12 07:26     22 21 58.395922 -85 13 08.62640
 2018-Dec-12 07:27     22 21 58.408194 -85 13 08.56836
 2018-Dec-12 07:28     22 21 58.420468 -85 13 08.51033
 2018-Dec-12 07:29     22 21 58.432744 -85 13 08.45229
 2018-Dec-12 07:30     22 21 58.445022 -85 13 08.39426
 2018-Dec-12 07:31     22 21 58.457302 -85 13 08.33623
 2018-Dec-12 07:32     22 21 58.469583 -85 13 08.27821
 2018-Dec-12 07:33     22 21 58.481867 -85 13 08.22019
 2018-Dec-12 07:34     22 21 58.494152 -85 13 08.16217
 2018-Dec-12 07:35     22 21 58.506440 -85 13 08.10415
 2018-Dec-12 07:36     22 21 58.518729 -85 13 08.04614
 2018-Dec-12 07:37     22 21 58.531020 -85 13 07.98813
 2018-Dec-12 07:38     22 21 58.543313 -85 13 07.93013
 2018-Dec-12 07:39     22 21 58.555608 -85 13 07.87212
 2018-Dec-12 07:40     22 21 58.567905 -85 13 07.81412
 2018-Dec-12 07:41     22 21 58.580203 -85 13 07.75613
 2018-Dec-12 07:42     22 21 58.592504 -85 13 07.69813
 2018-Dec-12 07:43     22 21 58.604806 -85 13 07.64014
 2018-Dec-12 07:44     22 21 58.617110 -85 13 07.58215
 2018-Dec-12 07:45     22 21 58.629416 -85 13 07.52417
 2018-Dec-12 07:46     22 21 58.641723 -85 13 07.46619
 2018-Dec-12 07:47     22 21 58.654032 -85 13 07.40821
 2018-Dec-12 07:48     22 21 58.666344 -85 13 07.35023
 2018-Dec-12 07:49     22 21 58.678656 -85 13 07.29226
 2018-Dec-12 07:50     22 21 58.690971 -85 13 07.23429
 2018-Dec-12 07:51     22 21 58.703287 -85 13 07.17633
 2018-Dec-12 07:52     22 21 58.715605 -85 13 07.11836
 2018-Dec-12 07:53     22 21 58.727925 -85 13 07.06040
 2018-Dec-12 07:54     22 21 58.740246 -85 13 07.00245
 2018-Dec-12 07:55     22 21 58.752569 -85 13 06.94450
 2018-Dec-12 07:56     22 21 58.764894 -85 13 06.88655
 2018-Dec-12 07:57     22 21 58.777221 -85 13 06.82860
 2018-Dec-12 07:58     22 21 58.789549 -85 13 06.77066
 2018-Dec-12 07:59 A   22 21 58.801878 -85 13 06.71272
 2018-Dec-12 08:00 A   22 21 58.814210 -85 13 06.65478
 2018-Dec-12 08:01 A   22 21 58.826543 -85 13 06.59685
 2018-Dec-12 08:02 A   22 21 58.838877 -85 13 06.53892
